NORAD_CAT_ID,OBJECT_NAME,OBJECT_TYPE,EPOCH,MEAN_MOTION,ECCENTRICITY,INCLINATION,RA_OF_ASC_NODE,ARG_OF_PERICENTER,MEAN_ANOMALY,BSTAR,MEAN_MOTION_DOT,MEAN_MOTION_DDOT,TLE_LINE0,TLE_LINE1,TLE_LINE2,SEMIMAJOR_AXIS,PERIOD,APOGEE,PERIGEE,DECAYED
52498.0,STARLINK-3925,PAYLOAD,2023-09-07 05:10:01,15.08845417,0.0001517,53.2175,184.35,97.7581,262.3583,3.1353e-05,2.11e-06,0.0,0 STARLINK-3925,1 52498U 22049AZ  23250.21529759  .00000211  00000-0  31353-4 0  9990,2 52498  53.2175 184.3500 0001517  97.7581 262.3583 15.08845417 74479,6917.864,95.437,540.778,538.679,0.0
52498.0,STARLINK-3925,PAYLOAD,2023-09-08 01:50:02,15.088477,0.0001783,53.2172,180.483,107.2183,252.9004,7.1069e-05,8.43e-06,0.0,0 STARLINK-3925,1 52498U 22049AZ  23251.07641319  .00000843  00000-0  71069-4 0  9991,2 52498  53.2172 180.4830 0001783 107.2183 252.9004 15.08847700 74604,6917.857,95.437,540.955,538.488,0.0
52498.0,STARLINK-3925,PAYLOAD,2023-09-09 01:40:49,15.08857631,0.0001075,53.2179,176.0271,99.8434,260.2679,-0.0001215,-2.222e-05,0.0,0 STARLINK-3925,1 52498U 22049AZ  23252.07001265 -.00002222  00000-0 -12150-3 0  9992,2 52498  53.2179 176.0271 0001075  99.8434 260.2679 15.08857631 74918,6917.826,95.436,540.435,538.948,0.0
52498.0,STARLINK-3925,PAYLOAD,2023-09-09 04:51:35,15.08845264,0.0001432,53.2174,175.4316,89.6474,270.4682,8.1094e-05,1.003e-05,0.0,0 STARLINK-3925,1 52498U 22049AZ  23252.20249358  .00001003  00000-0  81094-4 0  9992,2 52498  53.2174 175.4316 0001432  89.6474 270.4682 15.08845264 74774,6917.864,95.437,540.72,538.739,0.0
52498.0,STARLINK-3925,PAYLOAD,2023-09-09 19:10:04,15.08843871,0.0001462,53.2176,172.7549,96.3715,263.7443,-5.6835e-05,-1.192e-05,0.0,0 STARLINK-3925,1 52498U 22049AZ  23252.79865998 -.00001192  00000-0 -56835-4 0  9996,2 52498  53.2176 172.7549 0001462  96.3715 263.7443 15.08843871 75021,6917.869,95.437,540.745,538.722,0.0
52498.0,STARLINK-3925,PAYLOAD,2023-09-10 03:06:59,15.08844194,0.0001407,53.2189,171.2715,99.1022,261.013,-9.76e-10,-2.88e-06,0.0,0 STARLINK-3925,1 52498U 22049AZ  23253.12985698 -.00000288  00000-0 -97600-9 0  9999,2 52498  53.2189 171.2715 0001407  99.1022 261.0130 15.08844194 74915,6917.868,95.437,540.706,538.759,0.0
52498.0,STARLINK-3925,PAYLOAD,2023-09-11 02:57:47,15.08831742,0.0001455,53.219,166.8127,102.7744,257.3411,-2.7803e-05,-7.3e-06,0.0,0 STARLINK-3925,1 52498U 22049AZ  23254.12347029 -.00000730  00000-0 -27803-4 0  9995,2 52498  53.2190 166.8127 0001455 102.7744 257.3411 15.08831742 75229,6917.906,95.438,540.777,538.764,0.0
52498.0,STARLINK-3925,PAYLOAD,2023-09-11 10:54:43,15.08838149,0.0001311,53.2183,165.3221,86.9068,273.2074,-4.2141e-06,-3.55e-06,0.0,0 STARLINK-3925,1 52498U 22049AZ  23254.45466634 -.00000355  00000-0 -42141-5 0  9991,2 52498  53.2183 165.3221 0001311  86.9068 273.2074 15.08838149 75111,6917.886,95.438,540.658,538.844,0.0
52498.0,STARLINK-3925,PAYLOAD,2023-09-12 02:48:34,15.08843976,0.0001281,53.2183,162.3483,98.463,261.6507,0.0001024,1.342e-05,0.0,0 STARLINK-3925,1 52498U 22049AZ  23255.11706188  .00001342  00000-0  10240-3 0  9994,2 52498  53.2183 162.3483 0001281  98.4630 261.6507 15.08843976 75371,6917.868,95.437,540.619,538.847,0.0
52498.0,STARLINK-3925,PAYLOAD,2023-09-13 01:03:58,15.08847001,0.0001326,53.218,158.1853,83.0176,277.0967,0.00017135,2.441e-05,0.0,0 STARLINK-3925,1 52498U 22049AZ  23256.04442187  .00002441  00000-0  17135-3 0  9994,2 52498  53.2180 158.1853 0001326  83.0176 277.0967 15.08847001 75359,6917.859,95.437,540.641,538.807,0.0
52498.0,STARLINK-3925,PAYLOAD,2023-09-13 21:43:58,15.08852361,0.0001809,53.2185,154.3184,69.7879,290.3307,9.065e-05,1.155e-05,0.0,0 STARLINK-3925,1 52498U 22049AZ  23256.90553931  .00001155  00000-0  90650-4 0  9994,2 52498  53.2185 154.3184 0001809  69.7879 290.3307 15.08852361 75481,6917.843,95.437,540.959,538.456,0.0
52498.0,STARLINK-3925,PAYLOAD,2023-09-14 02:30:07,15.08854668,0.0001524,53.2189,153.4278,78.7531,281.3633,0.0001771,2.533e-05,0.0,0 STARLINK-3925,1 52498U 22049AZ  23257.10425345  .00002533  00000-0  17710-3 0  9990,2 52498  53.2189 153.4278 0001524  78.7531 281.3633 15.08854668 75673,6917.836,95.437,540.755,538.646,0.0
52498.0,STARLINK-3925,PAYLOAD,2023-09-14 21:34:46,15.08837179,0.0001612,53.2179,149.8554,83.1365,276.9811,-0.00010779,-2.003e-05,0.0,0 STARLINK-3925,1 52498U 22049AZ  23257.89914520 -.00002003  00000-0 -10779-3 0  9996,2 52498  53.2179 149.8554 0001612  83.1365 276.9811 15.08837179 75633,6917.889,95.438,540.869,538.639,0.0
52498.0,STARLINK-3925,PAYLOAD,2023-09-15 02:20:55,15.08841748,0.0001373,53.2178,148.967,109.1044,251.0096,-4.6522e-05,-1.028e-05,0.0,0 STARLINK-3925,1 52498U 22049AZ  23258.09786746 -.00001028  00000-0 -46522-4 0  9998,2 52498  53.2178 148.9670 0001373 109.1044 251.0096 15.08841748 75825,6917.875,95.437,540.69,538.79,0.0
52498.0,STARLINK-3925,PAYLOAD,2023-09-15 23:00:55,15.0885358,0.0001544,53.2186,145.0994,94.2857,265.8311,4.6038e-05,4.45e-06,0.0,0 STARLINK-3925,1 52498U 22049AZ  23258.95897626  .00000445  00000-0  46038-4 0  9995,2 52498  53.2186 145.0994 0001544  94.2857 265.8311 15.08853580 75951,6917.839,95.437,540.772,538.636,0.0
52498.0,STARLINK-3925,PAYLOAD,2023-09-16 02:11:41,15.08855792,0.000145,53.2186,144.5051,93.9907,266.1251,9.0725e-05,1.157e-05,0.0,0 STARLINK-3925,1 52498U 22049AZ  23259.09145394  .00001157  00000-0  90725-4 0  9992,2 52498  53.2186 144.5051 0001450  93.9907 266.1251 15.08855792 75816,6917.832,95.437,540.7,538.694,0.0
52498.0,STARLINK-3925,PAYLOAD,2023-09-17 02:02:29,15.08840206,0.0001606,53.2174,140.0454,87.8176,272.3,0.00016345,2.314e-05,0.0,0 STARLINK-3925,1 52498U 22049AZ  23260.08506842  .00002314  00000-0  16345-3 0  9993,2 52498  53.2174 140.0454 0001606  87.8176 272.3000 15.08840206 76124,6917.88,95.438,540.856,538.634,0.0
52498.0,STARLINK-3925,PAYLOAD,2023-09-18 01:53:16,15.08856008,0.000148,53.2167,135.5852,85.0817,275.0344,0.00024194,3.566e-05,0.0,0 STARLINK-3925,1 52498U 22049AZ  23261.07866054  .00003566  00000-0  24194-3 0  9998,2 52498  53.2167 135.5852 0001480  85.0817 275.0344 15.08856008 76273,6917.831,95.437,540.72,538.673,0.0
52498.0,STARLINK-3925,PAYLOAD,2023-09-18 22:33:17,15.08849573,0.000132,53.216,131.7215,87.9899,272.1244,0.00027265,4.055e-05,0.0,0 STARLINK-3925,1 52498U 22049AZ  23261.93978458  .00004055  00000-0  27265-3 0  9991,2 52498  53.2160 131.7215 0001320  87.9899 272.1244 15.08849573 76244,6917.851,95.437,540.629,538.803,0.0
52498.0,STARLINK-3925,PAYLOAD,2023-09-19 01:44:03,15.08854906,0.0001321,53.2163,131.1257,87.4637,272.6506,0.00050391,7.744e-05,0.0,0 STARLINK-3925,1 52498U 22049AZ  23262.07226319  .00007744  00000-0  50391-3 0  9993,2 52498  53.2163 131.1257 0001321  87.4637 272.6506 15.08854906 76425,6917.835,95.437,540.614,538.786,0.0
52498.0,STARLINK-3925,PAYLOAD,2023-09-19 19:13:17,15.08851922,0.000125,53.2154,127.8563,96.3592,263.7542,0.0003437,5.188e-05,0.0,0 STARLINK-3925,1 52498U 22049AZ  23262.80090051  .00005188  00000-0  34370-3 0  9995,2 52498  53.2154 127.8563 0001250  96.3592 263.7542 15.08851922 76535,6917.844,95.437,540.574,538.844,0.0
52498.0,STARLINK-3925,PAYLOAD,2023-09-20 01:34:49,15.08861442,0.0001235,53.2154,126.6664,93.2393,266.874,0.00054277,8.366e-05,0.0,0 STARLINK-3925,1 52498U 22049AZ  23263.06585619  .00008366  00000-0  54277-3 0  9992,2 52498  53.2154 126.6664 0001235  93.2393 266.8740 15.08861442 76411,6917.815,95.436,540.534,538.825,0.0
52498.0,STARLINK-3925,PAYLOAD,2023-09-20 19:04:06,15.08818931,0.0001458,53.2155,123.3956,76.0077,284.1077,-0.00033794,-5.659e-05,0.0,0 STARLINK-3925,1 52498U 22049AZ  23263.79451396 -.00005659  00000-0 -33794-3 0  9991,2 52498  53.2155 123.3956 0001458  76.0077 284.1077 15.08818931 76685,6917.945,95.439,540.818,538.801,0.0
52498.0,STARLINK-3925,PAYLOAD,2023-09-20 22:14:52,15.08822405,0.0001426,53.216,122.7999,91.6925,268.4231,-0.00021851,-3.762e-05,0.0,0 STARLINK-3925,1 52498U 22049AZ  23263.92699494 -.00003762  00000-0 -21851-3 0  9993,2 52498  53.2160 122.7999 0001426  91.6925 268.4231 15.08822405 76544,6917.934,95.439,540.786,538.813,0.0
52498.0,STARLINK-3925,PAYLOAD,2023-09-21 18:54:53,15.08837455,0.0001351,53.2155,118.9339,88.3337,271.781,0.00038855,5.901e-05,0.0,0 STARLINK-3925,1 52498U 22049AZ  23264.78811972  .00005901  00000-0  38855-3 0  9992,2 52498  53.2155 118.9339 0001351  88.3337 271.7810 15.08837455 76833,6917.888,95.438,540.688,538.819,0.0
52498.0,STARLINK-3925,PAYLOAD,2023-09-21 22:05:40,15.08843079,0.0001487,53.2156,118.3392,79.4338,280.6821,0.00076726,0.00011945,0.0,0 STARLINK-3925,1 52498U 22049AZ  23264.92060188  .00011945  00000-0  76726-3 0  9997,2 52498  53.2156 118.3392 0001487  79.4338 280.6821 15.08843079 76693,6917.871,95.437,540.765,538.707,0.0
52498.0,STARLINK-3925,PAYLOAD,2023-09-21 23:41:03,15.08847101,0.0001502,53.2156,118.0417,79.3609,280.7553,0.00085958,0.00013421,0.0,0 STARLINK-3925,1 52498U 22049AZ  23264.98684136  .00013421  00000-0  85958-3 0  9996,2 52498  53.2156 118.0417 0001502  79.3609 280.7553 15.08847101 76868,6917.859,95.437,540.763,538.685,0.0
52498.0,STARLINK-3925,PAYLOAD,2023-09-22 18:45:40,15.08858631,0.0001499,53.2157,114.473,78.0886,282.0274,0.00065855,0.00010214,0.0,0 STARLINK-3925,1 52498U 22049AZ  23265.78171620  .00010214  00000-0  65855-3 0  9995,2 52498  53.2157 114.4730 0001499  78.0886 282.0274 15.08858631 76983,6917.823,95.436,540.725,538.651,0.0
52498.0,STARLINK-3925,PAYLOAD,2023-09-22 20:21:03,15.08863094,0.0001468,53.2158,114.1751,82.617,277.4989,0.0008037,0.00012534,0.0,0 STARLINK-3925,1 52498U 22049AZ  23265.84795463  .00012534  00000-0  80370-3 0  9995,2 52498  53.2158 114.1751 0001468  82.6170 277.4989 15.08863094 76831,6917.81,95.436,540.69,538.659,0.0
52498.0,STARLINK-3925,PAYLOAD,2023-09-23 13:50:17,15.08846549,0.0001253,53.216,110.9044,80.7927,279.3207,0.00011941,1.613e-05,0.0,0 STARLINK-3925,1 52498U 22049AZ  23266.57659307  .00001613  00000-0  11941-3 0  9996,2 52498  53.2160 110.9044 0001253  80.7927 279.3207 15.08846549 76946,6917.86,95.437,540.592,538.859,0.0
